start=new Date('2021-10-08T00:00:00.000Z').valueOf();
sats=[{"EPHEMERIS_TYPE":"0","GP_ID":"186512420","COUNTRY_CODE":"US","BSTAR":"0.00002298200000","NORAD_CAT_ID":"48151","OBJECT_TYPE":"PAYLOAD","RA_OF_ASC_NODE":"195.9868","RCS_SIZE":"LARGE","SITE":"AFETR","INCLINATION":"53.0619","SEMIMAJOR_AXIS":"6925.368","PERIAPSIS":"546.003","PERIOD":"95.593","ELEMENT_SET_NO":"999","TLE_LINE2":"2 48151  53.0619 195.9868 0001776  72.4778 287.6405 15.06393583 29474","CENTER_NAME":"EARTH","MEAN_MOTION":"15.06393583","REV_AT_EPOCH":"2947","TIME_SYSTEM":"UTC","MEAN_MOTION_DDOT":"0.0000000000000","EPOCH":"2021-10-07T22:38:06.902880","CLASSIFICATION_TYPE":"U","LAUNCH_DATE":"2021-04-07","MEAN_ELEMENT_THEORY":"SGP4","MEAN_MOTION_DOT":"0.00000061","DECAY_DATE":null,"FILE":"3150302","REF_FRAME":"TEME","TLE_LINE1":"1 48151U 21027BM  21280.94313545  .00000061  00000-0  22982-4 0  9992","ARG_OF_PERICENTER":"72.4778","APOAPSIS":"548.463","OBJECT_ID":"2021-027BM","OBJECT_NAME":"STARLINK-2503","MEAN_ANOMALY":"287.6405","ECCENTRICITY":"0.00017760"},{"CENTER_NAME":"EARTH","TLE_LINE2":"2 48276  53.0439  91.1902 0001299  77.8372 237.9277 15.13372241 26150","MEAN_MOTION":"15.13372241","SEMIMAJOR_AXIS":"6904.062","INCLINATION":"53.0439","ELEMENT_SET_NO":"999","PERIAPSIS":"525.030","PERIOD":"95.152","RA_OF_ASC_NODE":"91.1902","RCS_SIZE":"LARGE","OBJECT_TYPE":"PAYLOAD","NORAD_CAT_ID":"48276","SITE":"AFETR","COUNTRY_CODE":"US","GP_ID":"186464926","EPHEMERIS_TYPE":"0","BSTAR":"-0.06326400000000","OBJECT_NAME":"STARLINK-2567","ECCENTRICITY":"0.00012990","MEAN_ANOMALY":"237.9277","APOAPSIS":"526.824","OBJECT_ID":"2021-036A","FILE":"3149268","REF_FRAME":"TEME","MEAN_MOTION_DOT":"-0.01058496","DECAY_DATE":null,"TLE_LINE1":"1 48276U 21036A   21280.91667824 -.01058496  00000-0 -63264-1 0  9992","ARG_OF_PERICENTER":"77.8372","MEAN_MOTION_DDOT":"0.0000000000000","EPOCH":"2021-10-07T22:00:00.999936","REV_AT_EPOCH":"2615","TIME_SYSTEM":"UTC","MEAN_ELEMENT_THEORY":"SGP4","CLASSIFICATION_TYPE":"U","LAUNCH_DATE":"2021-04-29"},{"MEAN_MOTION":"15.73245465","TLE_LINE2":"2 48277  53.0476  85.3259 0004472 356.6138 242.2026 15.73245465  3672","CENTER_NAME":"EARTH","PERIAPSIS":"346.622","PERIOD":"91.531","ELEMENT_SET_NO":"999","INCLINATION":"53.0476","SEMIMAJOR_AXIS":"6727.766","SITE":"AFETR","OBJECT_TYPE":"PAYLOAD","NORAD_CAT_ID":"48277","RA_OF_ASC_NODE":"85.3259","RCS_SIZE":"LARGE","BSTAR":"-0.00049305000000","GP_ID":"186512178","EPHEMERIS_TYPE":"0","COUNTRY_CODE":"US","MEAN_ANOMALY":"242.2026","ECCENTRICITY":"0.00044720","OBJECT_NAME":"STARLINK-2569","OBJECT_ID":"2021-036B","APOAPSIS":"352.639","TLE_LINE1":"1 48277U 21036B   21280.91667824 -.00069446  00000-0 -49305-3 0  9991","ARG_OF_PERICENTER":"356.6138","DECAY_DATE":null,"MEAN_MOTION_DOT":"-0.00069446","REF_FRAME":"TEME","FILE":"3150302","CLASSIFICATION_TYPE":"U","LAUNCH_DATE":"2021-04-29","MEAN_ELEMENT_THEORY":"SGP4","TIME_SYSTEM":"UTC","REV_AT_EPOCH":"367","EPOCH":"2021-10-07T22:00:00.999936","MEAN_MOTION_DDOT":"0.0000000000000"},{"SITE":"AFETR","RA_OF_ASC_NODE":"85.3235","RCS_SIZE":"LARGE","NORAD_CAT_ID":"48278","OBJECT_TYPE":"PAYLOAD","BSTAR":"-0.00043900000000","COUNTRY_CODE":"US","EPHEMERIS_TYPE":"0","GP_ID":"186464937","MEAN_MOTION":"15.73240389","CENTER_NAME":"EARTH","TLE_LINE2":"2 48278  53.0477  85.3235 0004486 358.2142 241.2609 15.73240389 26228","ELEMENT_SET_NO":"999","PERIAPSIS":"346.627","PERIOD":"91.531","SEMIMAJOR_AXIS":"6727.780","INCLINATION":"53.0477","TLE_LINE1":"1 48278U 21036C   21280.91667824 -.00061942  00000-0 -43900-3 0  9990","ARG_OF_PERICENTER":"358.2142","FILE":"3149269","REF_FRAME":"TEME","MEAN_MOTION_DOT":"-0.00061942","DECAY_DATE":null,"MEAN_ELEMENT_THEORY":"SGP4","LAUNCH_DATE":"2021-04-29","CLASSIFICATION_TYPE":"U","MEAN_MOTION_DDOT":"0.0000000000000","EPOCH":"2021-10-07T22:00:00.999936","REV_AT_EPOCH":"2622","TIME_SYSTEM":"UTC","ECCENTRICITY":"0.00044860","MEAN_ANOMALY":"241.2609","OBJECT_NAME":"STARLINK-2543","OBJECT_ID":"2021-036C","APOAPSIS":"352.663"},{"ELEMENT_SET_NO":"999","PERIOD":"91.531","PERIAPSIS":"346.735","SEMIMAJOR_AXIS":"6727.768","INCLINATION":"53.0476","MEAN_MOTION":"15.73244510","CENTER_NAME":"EARTH","TLE_LINE2":"2 48279  53.0476  85.3217 0004308 356.3200 243.7538 15.73244510 26223","BSTAR":"-0.00045218000000","COUNTRY_CODE":"US","GP_ID":"186464971","EPHEMERIS_TYPE":"0","SITE":"AFETR","RCS_SIZE":"LARGE","RA_OF_ASC_NODE":"85.3217","OBJECT_TYPE":"PAYLOAD","NORAD_CAT_ID":"48279","OBJECT_ID":"2021-036D","APOAPSIS":"352.532","ECCENTRICITY":"0.00043080","MEAN_ANOMALY":"243.7538","OBJECT_NAME":"STARLINK-2580","MEAN_ELEMENT_THEORY":"SGP4","LAUNCH_DATE":"2021-04-29","CLASSIFICATION_TYPE":"U","MEAN_MOTION_DDOT":"0.0000000000000","EPOCH":"2021-10-07T22:00:00.999936","TIME_SYSTEM":"UTC","REV_AT_EPOCH":"2622","ARG_OF_PERICENTER":"356.3200","TLE_LINE1":"1 48279U 21036D   21280.91667824 -.00063777  00000-0 -45218-3 0  9993","FILE":"3149271","REF_FRAME":"TEME","DECAY_DATE":null,"MEAN_MOTION_DOT":"-0.00063777"},{"OBJECT_ID":"2021-036E","APOAPSIS":"548.658","MEAN_ANOMALY":"286.8767","ECCENTRICITY":"0.00020690","OBJECT_NAME":"STARLINK-2565","CLASSIFICATION_TYPE":"U","LAUNCH_DATE":"2021-04-29","MEAN_ELEMENT_THEORY":"SGP4","REV_AT_EPOCH":"2486","TIME_SYSTEM":"UTC","EPOCH":"2021-10-07T21:01:54.257088","MEAN_MOTION_DDOT":"0.0000000000000","TLE_LINE1":"1 48280U 21036E   21280.87632242 -.00000403  00000-0 -81640-5 0  9994","ARG_OF_PERICENTER":"73.2449","MEAN_MOTION_DOT":"-0.00000403","DECAY_DATE":null,"FILE":"3150302","REF_FRAME":"TEME","PERIAPSIS":"545.792","PERIOD":"95.592","ELEMENT_SET_NO":"999","INCLINATION":"53.0541","SEMIMAJOR_AXIS":"6925.360","MEAN_MOTION":"15.06396261","TLE_LINE2":"2 48280  53.0541 141.2944 0002069  73.2449 286.8767 15.06396261 24866","CENTER_NAME":"EARTH","BSTAR":"-0.00000816400000","EPHEMERIS_TYPE":"0","GP_ID":"186511434","COUNTRY_CODE":"US","SITE":"AFETR","NORAD_CAT_ID":"48280","OBJECT_TYPE":"PAYLOAD","RA_OF_ASC_NODE":"141.2944","RCS_SIZE":"LARGE"},{"SEMIMAJOR_AXIS":"6925.363","INCLINATION":"53.0549","ELEMENT_SET_NO":"999","PERIAPSIS":"545.959","PERIOD":"95.592","CENTER_NAME":"EARTH","TLE_LINE2":"2 48281  53.0549 121.5346 0001833  85.5555 274.5643 15.06395251 25130","MEAN_MOTION":"15.06395251","COUNTRY_CODE":"US","EPHEMERIS_TYPE":"0","GP_ID":"186511678","BSTAR":"-0.00000158980000","RA_OF_ASC_NODE":"121.5346","RCS_SIZE":"LARGE","NORAD_CAT_ID":"48281","OBJECT_TYPE":"PAYLOAD","SITE":"AFETR","APOAPSIS":"548.498","OBJECT_ID":"2021-036F","OBJECT_NAME":"STARLINK-2520","ECCENTRICITY":"0.00018330","MEAN_ANOMALY":"274.5643","MEAN_MOTION_DDOT":"0.0000000000000","EPOCH":"2021-10-07T19:44:56.873472","TIME_SYSTEM":"UTC","REV_AT_EPOCH":"2513","MEAN_ELEMENT_THEORY":"SGP4","CLASSIFICATION_TYPE":"U","LAUNCH_DATE":"2021-04-29","FILE":"3150302","REF_FRAME":"TEME","DECAY_DATE":null,"MEAN_MOTION_DOT":"-0.00000305","TLE_LINE1":"1 48281U 21036F   21280.82288048 -.00000305  00000-0 -15898-5 0  9994","ARG_OF_PERICENTER":"85.5555"},{"GP_ID":"186512435","EPHEMERIS_TYPE":"0","COUNTRY_CODE":"US","BSTAR":"0.00010969000000","OBJECT_TYPE":"PAYLOAD","NORAD_CAT_ID":"48282","RA_OF_ASC_NODE":"126.4263","RCS_SIZE":"LARGE","SITE":"AFETR","INCLINATION":"53.0612","SEMIMAJOR_AXIS":"6925.345","PERIAPSIS":"545.894","PERIOD":"95.592","ELEMENT_SET_NO":"999","TLE_LINE2":"2 48282  53.0612 126.4263 0001900  84.4789 275.6417 15.06401260 25078","CENTER_NAME":"EARTH","MEAN_MOTION":"15.06401260","REV_AT_EPOCH":"2507","TIME_SYSTEM":"UTC","MEAN_MOTION_DDOT":"0.0000000000000","EPOCH":"2021-10-07T20:18:46.873440","CLASSIFICATION_TYPE":"U","LAUNCH_DATE":"2021-04-29","MEAN_ELEMENT_THEORY":"SGP4","MEAN_MOTION_DOT":"0.00001353","DECAY_DATE":null,"REF_FRAME":"TEME","FILE":"3150302","TLE_LINE1":"1 48282U 21036G   21280.84637585  .00001353  00000-0  10969-3 0  9995","ARG_OF_PERICENTER":"84.4789","APOAPSIS":"548.526","OBJECT_ID":"2021-036G","OBJECT_NAME":"STARLINK-2558","MEAN_ANOMALY":"275.6417","ECCENTRICITY":"0.00019000"},{"BSTAR":"0.00009720700000","COUNTRY_CODE":"US","EPHEMERIS_TYPE":"0","GP_ID":"186512161","SITE":"AFETR","RCS_SIZE":"LARGE","RA_OF_ASC_NODE":"126.4365","OBJECT_TYPE":"PAYLOAD","NORAD_CAT_ID":"48283","ELEMENT_SET_NO":"999","PERIOD":"95.593","PERIAPSIS":"546.249","SEMIMAJOR_AXIS":"6925.369","INCLINATION":"53.0622","MEAN_MOTION":"15.06393250","CENTER_NAME":"EARTH","TLE_LINE2":"2 48283  53.0622 126.4365 0001423  89.4867 270.6285 15.06393250 25072","MEAN_ELEMENT_THEORY":"SGP4","CLASSIFICATION_TYPE":"U","LAUNCH_DATE":"2021-04-29","MEAN_MOTION_DDOT":"0.0000000000000","EPOCH":"2021-10-07T20:13:30.599328","TIME_SYSTEM":"UTC","REV_AT_EPOCH":"2507","ARG_OF_PERICENTER":"89.4867","TLE_LINE1":"1 48283U 21036H   21280.84271527  .00001166  00000-0  97207-4 0  9999","FILE":"3150302","REF_FRAME":"TEME","DECAY_DATE":null,"MEAN_MOTION_DOT":"0.00001166","OBJECT_ID":"2021-036H","APOAPSIS":"548.220","ECCENTRICITY":"0.00014230","MEAN_ANOMALY":"270.6285","OBJECT_NAME":"STARLINK-2516"},{"MEAN_ANOMALY":"274.7076","ECCENTRICITY":"0.00022530","OBJECT_NAME":"STARLINK-2564","OBJECT_ID":"2021-036J","APOAPSIS":"548.792","ARG_OF_PERICENTER":"85.4171","TLE_LINE1":"1 48284U 21036J   21280.83900534 -.00000260  00000-0  14412-5 0  9999","MEAN_MOTION_DOT":"-0.00000260","DECAY_DATE":null,"FILE":"3150302","REF_FRAME":"TEME","CLASSIFICATION_TYPE":"U","LAUNCH_DATE":"2021-04-29","MEAN_ELEMENT_THEORY":"SGP4","REV_AT_EPOCH":"2506","TIME_SYSTEM":"UTC","EPOCH":"2021-10-07T20:08:10.061376","MEAN_MOTION_DDOT":"0.0000000000000","MEAN_MOTION":"15.06394070","TLE_LINE2":"2 48284  53.0502 126.4862 0002253  85.4171 274.7076 15.06394070 25061","CENTER_NAME":"EARTH","PERIOD":"95.593","PERIAPSIS":"545.671","ELEMENT_SET_NO":"999","INCLINATION":"53.0502","SEMIMAJOR_AXIS":"6925.367","SITE":"AFETR","OBJECT_TYPE":"PAYLOAD","NORAD_CAT_ID":"48284","RCS_SIZE":"LARGE","RA_OF_ASC_NODE":"126.4862","BSTAR":"0.00000144120000","EPHEMERIS_TYPE":"0","GP_ID":"186510934","COUNTRY_CODE":"US"}];
